[
    {
        "Altitude(m)": 607897.6362639578,
        "Argument of Periapsis(deg)": 0.0,
        "Eccentricity": 0.0,
        "Inclination(deg)": 60.0,
        "Latitude(deg)": -14.293056467842007,
        "Longitude(deg)": -33.38122190308955,
        "Mean Anomaly(deg)": -16.363600000000023,
        "RAAN(deg)": 75.0,
        "Satellite Name": "Test1 351",
        "Satellite Number": 351,
        "Semi-Major Axis(m)": 6980739.136638005,
        "Time(s)": 0
    },
    {
        "Altitude(m)": 607750.8367270343,
        "Argument of Periapsis(deg)": 0.00010418945913296404,
        "Eccentricity": 0.0,
        "Inclination(deg)": 60.0,
        "Latitude(deg)": -13.758897415781709,
        "Longitude(deg)": -33.09415372243987,
        "Mean Anomaly(deg)": -15.743493854538185,
        "RAAN(deg)": 74.99957995086027,
        "Satellite Name": "Test1 351",
        "Satellite Number": 351,
        "Semi-Major Axis(m)": 6980739.136638005,
        "Time(s)": 10
    }
]